[{"OBJECT_NAME":"STARLINK-5444","OBJECT_ID":"2022-175L","EPOCH":"2026-03-09T03:46:26.838048","MEAN_MOTION":15.08839083,"ECCENTRICITY":0.00015235,"INCLINATION":53.2191,"RA_OF_ASC_NODE":31.8934,"ARG_OF_PERICENTER":93.3013,"MEAN_ANOMALY":266.8153,"EPHEMERIS_TYPE":0,"CLASSIFICATION_TYPE":"U","NORAD_CAT_ID":54768,"ELEMENT_SET_NO":999,"REV_AT_EPOCH":18004,"BSTAR":-1.0831251e-5,"MEAN_MOTION_DOT":-4.6e-6,"MEAN_MOTION_DDOT":0},{"OBJECT_NAME":"PSLV DEB","OBJECT_ID":"2001-049CY","EPOCH":"2026-03-09T18:20:37.296384","MEAN_MOTION":15.08389698,"ECCENTRICITY":0.00190632,"INCLINATION":97.9861,"RA_OF_ASC_NODE":156.2845,"ARG_OF_PERICENTER":340.3269,"MEAN_ANOMALY":19.722,"EPHEMERIS_TYPE":0,"CLASSIFICATION_TYPE":"U","NORAD_CAT_ID":27152,"ELEMENT_SET_NO":999,"REV_AT_EPOCH":30598,"BSTAR":0.00053695108,"MEAN_MOTION_DOT":8.318e-5,"MEAN_MOTION_DDOT":0}]
